{"type": "FeatureCollection", "features": [ {"type": "Feature", "properties": {"norad_id": 35587, "name": "COSMOS 2251 DEB", "group": "cosmos-2251-debris", "lat": -15.576411277982176, "lon": -104.63713998580732, "alt_km": 628.1456313979534, "timestamp": "2025-12-06T09:34:17.310426+00:00", "meta": {"OBJECT_NAME": "COSMOS 2251 DEB", "OBJECT_ID": "1993-036AME", "EPOCH": "2025-12-05T13:05:34.214496", "MEAN_MOTION": 14.71476804, "ECCENTRICITY": 0.01029789, "INCLINATION": 74.0063, "RA_OF_ASC_NODE": 72.4378, "ARG_OF_PERICENTER": 261.7398, "MEAN_ANOMALY": 97.2085, "EPHEMERIS_TYPE": 0, "CLASSIFICATION_TYPE": "U", "NORAD_CAT_ID": 35587, "ELEMENT_SET_NO": 999, "REV_AT_EPOCH": 66240, "BSTAR": 0.0005712228, "MEAN_MOTION_DOT": 3.815e-05, "MEAN_MOTION_DDOT": 0}, "tle": {"line1": "1 35587U 93036AME 25339.54553489  .00003815  00000+0  57122-3 0  9990", "line2": "2 35587  74.0063  72.4378 0102978 261.7398  97.2085 14.71476804662405"}}, "geometry": {"type": "Point", "coordinates": [-104.63713998580732, -15.576411277982176]}}, {"type": "Feature", "properties": {"norad_id": 35593, "name": "COSMOS 2251 DEB", "group": "cosmos-2251-debris", "lat": -59.78703880727587, "lon": -89.47302901457026, "alt_km": 739.3009559090733, "timestamp": "2025-12-06T09:34:17.310436+00:00", "meta": {"OBJECT_NAME": "COSMOS 2251 DEB", "OBJECT_ID": "1993-036AML", "EPOCH": "2025-12-02T08:10:41.646720", "MEAN_MOTION": 14.25498697, "ECCENTRICITY": 0.01053488, "INCLINATION": 74.0851, "RA_OF_ASC_NODE": 307.1662, "ARG_OF_PERICENTER": 315.9582, "MEAN_ANOMALY": 43.3207, "EPHEMERIS_TYPE": 0, "CLASSIFICATION_TYPE": "U", "NORAD_CAT_ID": 35593, "ELEMENT_SET_NO": 999, "REV_AT_EPOCH": 84917, "BSTAR": 0.0018161686, "MEAN_MOTION_DOT": 4.526e-05, "MEAN_MOTION_DDOT": 0}, "tle": {"line1": "1 35593U 93036AML 25336.34075980  .00004526  00000+0  18162-2 0  9997", "line2": "2 35593  74.0851 307.1662 0105348 315.9582  43.3207 14.25498697849174"}}, "geometry": {"type": "Point", "coordinates": [-89.47302901457026, -59.78703880727587]}}, {"type": "Feature", "properties": {"norad_id": 35594, "name": "COSMOS 2251 DEB", "group": "cosmos-2251-debris", "lat": -70.92466457584341, "lon": -3.4577558415498033, "alt_km": 593.6854617613935, "timestamp": "2025-12-06T09:34:17.310446+00:00", "meta": {"OBJECT_NAME": "COSMOS 2251 DEB", "OBJECT_ID": "1993-036AMM", "EPOCH": "2025-12-01T02:30:04.449024", "MEAN_MOTION": 14.8736155, "ECCENTRICITY": 0.00313469, "INCLINATION": 73.8065, "RA_OF_ASC_NODE": 130.0573, "ARG_OF_PERICENTER": 241.1394, "MEAN_ANOMALY": 118.6638, "EPHEMERIS_TYPE": 0, "CLASSIFICATION_TYPE": "U", "NORAD_CAT_ID": 35594, "ELEMENT_SET_NO": 999, "REV_AT_EPOCH": 88012, "BSTAR": 0.00176297, "MEAN_MOTION_DOT": 0.00016075, "MEAN_MOTION_DDOT": 0}, "tle": {"line1": "1 35594U 93036AMM 25335.10421816  .00016075  00000+0  17630-2 0  9995", "line2": "2 35594  73.8065 130.0573 0031346 241.1394 118.6638 14.87361550880129"}}, "geometry": {"type": "Point", "coordinates": [-3.4577558415498033, -70.92466457584341]}}, {"type": "Feature", "properties": {"norad_id": 35602, "name": "COSMOS 2251 DEB", "group": "cosmos-2251-debris", "lat": 16.20963974913938, "lon": -159.36581224478118, "alt_km": 486.7119502007545, "timestamp": "2025-12-06T09:34:17.310456+00:00", "meta": {"OBJECT_NAME": "COSMOS 2251 DEB", "OBJECT_ID": "1993-036AMV", "EPOCH": "2025-12-05T09:14:10.334112", "MEAN_MOTION": 15.34714955, "ECCENTRICITY": 0.0090692, "INCLINATION": 73.9941, "RA_OF_ASC_NODE": 198.0259, "ARG_OF_PERICENTER": 265.4665, "MEAN_ANOMALY": 270.7727, "EPHEMERIS_TYPE": 0, "CLASSIFICATION_TYPE": "U", "NORAD_CAT_ID": 35602, "ELEMENT_SET_NO": 999, "REV_AT_EPOCH": 89978, "BSTAR": 0.00072460009, "MEAN_MOTION_DOT": 0.00027961, "MEAN_MOTION_DDOT": 0}, "tle": {"line1": "1 35602U 93036AMV 25339.38484183  .00027961  00000+0  72460-3 0  9994", "line2": "2 35602  73.9941 198.0259 0090692 265.4665 270.7727 15.34714955899782"}}, "geometry": {"type": "Point", "coordinates": [-159.36581224478118, 16.20963974913938]}}, {"type": "Feature", "properties": {"norad_id": 35605, "name": "COSMOS 2251 DEB", "group": "cosmos-2251-debris", "lat": 54.276187778598036, "lon": 146.5761298262372, "alt_km": 488.12778564844575, "timestamp": "2025-12-06T09:34:17.310466+00:00", "meta": {"OBJECT_NAME": "COSMOS 2251 DEB", "OBJECT_ID": "1993-036AMY", "EPOCH": "2025-12-05T07:56:09.088800", "MEAN_MOTION": 15.30160549, "ECCENTRICITY": 0.00303227, "INCLINATION": 73.8708, "RA_OF_ASC_NODE": 352.5999, "ARG_OF_PERICENTER": 290.0227, "MEAN_ANOMALY": 69.7711, "EPHEMERIS_TYPE": 0, "CLASSIFICATION_TYPE": "U", "NORAD_CAT_ID": 35605, "ELEMENT_SET_NO": 999, "REV_AT_EPOCH": 65858, "BSTAR": 0.0089867735, "MEAN_MOTION_DOT": 0.00275641, "MEAN_MOTION_DDOT": 0}, "tle": {"line1": "1 35605U 93036AMY 25339.33066075  .00275641  00000+0  89868-2 0  9997", "line2": "2 35605  73.8708 352.5999 0030322 290.0227  69.7711 15.30160549658585"}}, "geometry": {"type": "Point", "coordinates": [146.5761298262372, 54.276187778598036]}}, {"type": "Feature", "properties": {"norad_id": 35606, "name": "COSMOS 2251 DEB", "group": "cosmos-2251-debris", "lat": -14.581430641316002, "lon": -154.75965736373465, "alt_km": 815.477600629164, "timestamp": "2025-12-06T09:34:17.310476+00:00", "meta": {"OBJECT_NAME": "COSMOS 2251 DEB", "OBJECT_ID": "1993-036AMZ", "EPOCH": "2025-12-03T08:57:47.035584", "MEAN_MOTION": 13.41186059, "ECCENTRICITY": 0.04578387, "INCLINATION": 73.8109, "RA_OF_ASC_NODE": 25.726, "ARG_OF_PERICENTER": 232.8079, "MEAN_ANOMALY": 123.0404, "EPHEMERIS_TYPE": 0, "CLASSIFICATION_TYPE": "U", "NORAD_CAT_ID": 35606, "ELEMENT_SET_NO": 999, "REV_AT_EPOCH": 60914, "BSTAR": 0.0017547479, "MEAN_MOTION_DOT": 1.782e-05, "MEAN_MOTION_DDOT": 0}, "tle": {"line1": "1 35606U 93036AMZ 25337.37346106  .00001782  00000+0  17547-2 0  9994", "line2": "2 35606  73.8109  25.7260 0457838 232.8079 123.0404 13.41186059609140"}}, "geometry": {"type": "Point", "coordinates": [-154.75965736373465, -14.581430641316002]}}, {"type": "Feature", "properties": {"norad_id": 35611, "name": "COSMOS 2251 DEB", "group": "cosmos-2251-debris", "lat": -21.285772913463486, "lon": 18.074718802092665, "alt_km": 650.769568805571, "timestamp": "2025-12-06T09:34:17.310486+00:00", "meta": {"OBJECT_NAME": "COSMOS 2251 DEB", "OBJECT_ID": "1993-036ANE", "EPOCH": "2025-12-01T14:30:37.941120", "MEAN_MOTION": 14.72378528, "ECCENTRICITY": 0.00224128, "INCLINATION": 74.0218, "RA_OF_ASC_NODE": 201.0005, "ARG_OF_PERICENTER": 275.1179, "MEAN_ANOMALY": 84.7435, "EPHEMERIS_TYPE": 0, "CLASSIFICATION_TYPE": "U", "NORAD_CAT_ID": 35611, "ELEMENT_SET_NO": 999, "REV_AT_EPOCH": 87126, "BSTAR": 0.0019124254, "MEAN_MOTION_DOT": 0.00012147, "MEAN_MOTION_DDOT": 0}, "tle": {"line1": "1 35611U 93036ANE 25335.60460580  .00012147  00000+0  19124-2 0  9997", "line2": "2 35611  74.0218 201.0005 0022412 275.1179  84.7435 14.72378528871263"}}, "geometry": {"type": "Point", "coordinates": [18.074718802092665, -21.285772913463486]}}, {"type": "Feature", "properties": {"norad_id": 35614, "name": "COSMOS 2251 DEB", "group": "cosmos-2251-debris", "lat": 73.682542090676, "lon": 80.39605300613754, "alt_km": 675.0175218076247, "timestamp": "2025-12-06T09:34:17.310496+00:00", "meta": {"OBJECT_NAME": "COSMOS 2251 DEB", "OBJECT_ID": "1993-036ANH", "EPOCH": "2025-12-05T08:35:34.166976", "MEAN_MOTION": 14.66905481, "ECCENTRICITY": 0.00762912, "INCLINATION": 73.9585, "RA_OF_ASC_NODE": 341.7759, "ARG_OF_PERICENTER": 198.0285, "MEAN_ANOMALY": 161.8178, "EPHEMERIS_TYPE": 0, "CLASSIFICATION_TYPE": "U", "NORAD_CAT_ID": 35614, "ELEMENT_SET_NO": 999, "REV_AT_EPOCH": 87621, "BSTAR": 0.0016552596, "MEAN_MOTION_DOT": 9.649e-05, "MEAN_MOTION_DDOT": 0}, "tle": {"line1": "1 35614U 93036ANH 25339.35803434  .00009649  00000+0  16553-2 0  9991", "line2": "2 35614  73.9585 341.7759 0076291 198.0285 161.8178 14.66905481876212"}}, "geometry": {"type": "Point", "coordinates": [80.39605300613754, 73.682542090676]}}, {"type": "Feature", "properties": {"norad_id": 35645, "name": "COSMOS 2251 DEB", "group": "cosmos-2251-debris", "lat": -53.325317011069245, "lon": 76.889703909708, "alt_km": 712.6098710946608, "timestamp": "2025-12-06T09:34:17.310506+00:00", "meta": {"OBJECT_NAME": "COSMOS 2251 DEB", "OBJECT_ID": "1993-036ANL", "EPOCH": "2025-12-05T00:36:34.377696", "MEAN_MOTION": 14.45381959, "ECCENTRICITY": 0.00692531, "INCLINATION": 73.9647, "RA_OF_ASC_NODE": 102.1783, "ARG_OF_PERICENTER": 260.7833, "MEAN_ANOMALY": 98.5487, "EPHEMERIS_TYPE": 0, "CLASSIFICATION_TYPE": "U", "NORAD_CAT_ID": 35645, "ELEMENT_SET_NO": 999, "REV_AT_EPOCH": 86660, "BSTAR": 0.0041242719, "MEAN_MOTION_DOT": 0.00014944, "MEAN_MOTION_DDOT": 0}, "tle": {"line1": "1 35645U 93036ANL 25339.02539789  .00014944  00000+0  41243-2 0  9996", "line2": "2 35645  73.9647 102.1783 0069253 260.7833  98.5487 14.45381959866603"}}, "geometry": {"type": "Point", "coordinates": [76.889703909708, -53.325317011069245]}}, {"type": "Feature", "properties": {"norad_id": 35646, "name": "COSMOS 2251 DEB", "group": "cosmos-2251-debris", "lat": 73.80328242964083, "lon": 151.05076372085395, "alt_km": 1075.4176220782765, "timestamp": "2025-12-06T09:34:17.310517+00:00", "meta": {"OBJECT_NAME": "COSMOS 2251 DEB", "OBJECT_ID": "1993-036ANM", "EPOCH": "2025-12-04T12:27:05.030208", "MEAN_MOTION": 13.40795719, "ECCENTRICITY": 0.0457655, "INCLINATION": 73.8717, "RA_OF_ASC_NODE": 69.0727, "ARG_OF_PERICENTER": 180.5936, "MEAN_ANOMALY": 201.9959, "EPHEMERIS_TYPE": 0, "CLASSIFICATION_TYPE": "U", "NORAD_CAT_ID": 35646, "ELEMENT_SET_NO": 999, "REV_AT_EPOCH": 81748, "BSTAR": 0.0021754, "MEAN_MOTION_DOT": 2.2e-05, "MEAN_MOTION_DDOT": 0}, "tle": {"line1": "1 35646U 93036ANM 25338.51880822  .00002200  00000+0  21754-2 0  9994", "line2": "2 35646  73.8717  69.0727 0457655 180.5936 201.9959 13.40795719817483"}}, "geometry": {"type": "Point", "coordinates": [151.05076372085395, 73.80328242964083]}}]}